[
  {
    "OBJECT_NAME": "STARLINK-35270",
    "OBJECT_ID": "25224A",
    "EPOCH": "2025-11-11T04:35:04.280928",
    "MEAN_MOTION": 15.49337229,
    "ECCENTRICITY": 0.0001424,
    "INCLINATION": 53.1587,
    "RA_OF_ASC_NODE": 202.3308,
    "ARG_OF_PERICENTER": 114.8889,
    "MEAN_ANOMALY": 245.2268,
    "EPHEMERIS_TYPE": 0,
    "CLASSIFICATION_TYPE": "U",
    "NORAD_CAT_ID": 65882,
    "ELEMENT_SET_NO": 999,
    "REV_AT_EPOCH": 667,
    "BSTAR": 0.001727,
    "MEAN_MOTION_DOT": 0.00096899,
    "MEAN_MOTION_DDOT": 0.0,
    "TLE_LINE1": "1 65882U 25224A   25315.19102177  .00096899  00000+0  17270-2 0  9997",
    "TLE_LINE2": "2 65882  53.1587 202.3308 0001424 114.8889 245.2268 15.49337229  6671",
    "COMMENT": "Grouped by shell and plane from TLE"
  },
  {
    "OBJECT_NAME": "STARLINK-35367",
    "OBJECT_ID": "25224B",
    "EPOCH": "2025-11-10T23:55:24.022848",
    "MEAN_MOTION": 15.49379125,
    "ECCENTRICITY": 9.24e-05,
    "INCLINATION": 53.1581,
    "RA_OF_ASC_NODE": 203.2522,
    "ARG_OF_PERICENTER": 137.8813,
    "MEAN_ANOMALY": 222.2267,
    "EPHEMERIS_TYPE": 0,
    "CLASSIFICATION_TYPE": "U",
    "NORAD_CAT_ID": 65883,
    "ELEMENT_SET_NO": 999,
    "REV_AT_EPOCH": 664,
    "BSTAR": 0.0018641,
    "MEAN_MOTION_DOT": 0.00104884,
    "MEAN_MOTION_DDOT": 0.0,
    "TLE_LINE1": "1 65883U 25224B   25314.99680582  .00104884  00000+0  18641-2 0  9993",
    "TLE_LINE2": "2 65883  53.1581 203.2522 0000924 137.8813 222.2267 15.49379125  6642",
    "COMMENT": "Grouped by shell and plane from TLE"
  },
  {
    "OBJECT_NAME": "STARLINK-35384",
    "OBJECT_ID": "25224C",
    "EPOCH": "2025-11-10T23:54:25.102368",
    "MEAN_MOTION": 15.4936986,
    "ECCENTRICITY": 9.03e-05,
    "INCLINATION": 53.1587,
    "RA_OF_ASC_NODE": 203.2461,
    "ARG_OF_PERICENTER": 100.8356,
    "MEAN_ANOMALY": 259.2755,
    "EPHEMERIS_TYPE": 0,
    "CLASSIFICATION_TYPE": "U",
    "NORAD_CAT_ID": 65884,
    "ELEMENT_SET_NO": 999,
    "REV_AT_EPOCH": 664,
    "BSTAR": 0.0016109000000000002,
    "MEAN_MOTION_DOT": 0.00090381,
    "MEAN_MOTION_DDOT": 0.0,
    "TLE_LINE1": "1 65884U 25224C   25314.99612387  .00090381  00000+0  16109-2 0  9995",
    "TLE_LINE2": "2 65884  53.1587 203.2461 0000903 100.8356 259.2755 15.49369860  6647",
    "COMMENT": "Grouped by shell and plane from TLE"
  },
  {
    "OBJECT_NAME": "STARLINK-35415",
    "OBJECT_ID": "25224D",
    "EPOCH": "2025-11-11T04:32:06.200160",
    "MEAN_MOTION": 15.49339011,
    "ECCENTRICITY": 0.0001138,
    "INCLINATION": 53.1591,
    "RA_OF_ASC_NODE": 202.3168,
    "ARG_OF_PERICENTER": 87.6487,
    "MEAN_ANOMALY": 272.4653,
    "EPHEMERIS_TYPE": 0,
    "CLASSIFICATION_TYPE": "U",
    "NORAD_CAT_ID": 65885,
    "ELEMENT_SET_NO": 999,
    "REV_AT_EPOCH": 662,
    "BSTAR": 0.0015347,
    "MEAN_MOTION_DOT": 0.00085938,
    "MEAN_MOTION_DDOT": 0.0,
    "TLE_LINE1": "1 65885U 25224D   25315.18896065  .00085938  00000+0  15347-2 0  9990",
    "TLE_LINE2": "2 65885  53.1591 202.3168 0001138  87.6487 272.4653 15.49339011  6622",
    "COMMENT": "Grouped by shell and plane from TLE"
  },
  {
    "OBJECT_NAME": "STARLINK-35413",
    "OBJECT_ID": "25224E",
    "EPOCH": "2025-11-11T06:04:00.385536",
    "MEAN_MOTION": 15.49342727,
    "ECCENTRICITY": 0.0001152,
    "INCLINATION": 53.1581,
    "RA_OF_ASC_NODE": 202.0033,
    "ARG_OF_PERICENTER": 97.7109,
    "MEAN_ANOMALY": 262.4031,
    "EPHEMERIS_TYPE": 0,
    "CLASSIFICATION_TYPE": "U",
    "NORAD_CAT_ID": 65886,
    "ELEMENT_SET_NO": 999,
    "REV_AT_EPOCH": 663,
    "BSTAR": 0.0013899000000000001,
    "MEAN_MOTION_DOT": 0.00077718,
    "MEAN_MOTION_DDOT": 0.0,
    "TLE_LINE1": "1 65886U 25224E   25315.25278224  .00077718  00000+0  13899-2 0  9997",
    "TLE_LINE2": "2 65886  53.1581 202.0033 0001152  97.7109 262.4031 15.49342727  6637",
    "COMMENT": "Grouped by shell and plane from TLE"
  },
  {
    "OBJECT_NAME": "STARLINK-35332",
    "OBJECT_ID": "25224F",
    "EPOCH": "2025-11-11T04:30:37.195200",
    "MEAN_MOTION": 15.49391906,
    "ECCENTRICITY": 9.42e-05,
    "INCLINATION": 53.1579,
    "RA_OF_ASC_NODE": 202.3092,
    "ARG_OF_PERICENTER": 119.8079,
    "MEAN_ANOMALY": 240.3024,
    "EPHEMERIS_TYPE": 0,
    "CLASSIFICATION_TYPE": "U",
    "NORAD_CAT_ID": 65887,
    "ELEMENT_SET_NO": 999,
    "REV_AT_EPOCH": 670,
    "BSTAR": 0.0017108000000000002,
    "MEAN_MOTION_DOT": 0.00096157,
    "MEAN_MOTION_DDOT": 0.0,
    "TLE_LINE1": "1 65887U 25224F   25315.18793050  .00096157  00000+0  17108-2 0  9994",
    "TLE_LINE2": "2 65887  53.1579 202.3092 0000942 119.8079 240.3024 15.49391906  6709",
    "COMMENT": "Grouped by shell and plane from TLE"
  },
  {
    "OBJECT_NAME": "STARLINK-35362",
    "OBJECT_ID": "25224G",
    "EPOCH": "2025-11-11T04:34:35.521824",
    "MEAN_MOTION": 15.49350858,
    "ECCENTRICITY": 7.39e-05,
    "INCLINATION": 53.1592,
    "RA_OF_ASC_NODE": 202.3267,
    "ARG_OF_PERICENTER": 133.3855,
    "MEAN_ANOMALY": 226.7216,
    "EPHEMERIS_TYPE": 0,
    "CLASSIFICATION_TYPE": "U",
    "NORAD_CAT_ID": 65888,
    "ELEMENT_SET_NO": 999,
    "REV_AT_EPOCH": 667,
    "BSTAR": 0.0019869,
    "MEAN_MOTION_DOT": 0.00111816,
    "MEAN_MOTION_DDOT": 0.0,
    "TLE_LINE1": "1 65888U 25224G   25315.19068891  .00111816  00000+0  19869-2 0  9990",
    "TLE_LINE2": "2 65888  53.1592 202.3267 0000739 133.3855 226.7216 15.49350858  6674",
    "COMMENT": "Grouped by shell and plane from TLE"
  },
  {
    "OBJECT_NAME": "STARLINK-35193",
    "OBJECT_ID": "25224H",
    "EPOCH": "2025-11-10T23:21:30.470112",
    "MEAN_MOTION": 15.50601002,
    "ECCENTRICITY": 0.0007513,
    "INCLINATION": 53.159,
    "RA_OF_ASC_NODE": 203.0915,
    "ARG_OF_PERICENTER": 312.9658,
    "MEAN_ANOMALY": 47.0721,
    "EPHEMERIS_TYPE": 0,
    "CLASSIFICATION_TYPE": "U",
    "NORAD_CAT_ID": 65889,
    "ELEMENT_SET_NO": 999,
    "REV_AT_EPOCH": 667,
    "BSTAR": 0.0043249,
    "MEAN_MOTION_DOT": 0.00260029,
    "MEAN_MOTION_DDOT": 0.0,
    "TLE_LINE1": "1 65889U 25224H   25314.97326933  .00260029  00000+0  43249-2 0  9990",
    "TLE_LINE2": "2 65889  53.1590 203.0915 0007513 312.9658  47.0721 15.50601002  6671",
    "COMMENT": "Grouped by shell and plane from TLE"
  },
  {
    "OBJECT_NAME": "STARLINK-34542",
    "OBJECT_ID": "25224J",
    "EPOCH": "2025-11-11T04:33:34.614144",
    "MEAN_MOTION": 15.4939275,
    "ECCENTRICITY": 0.0001396,
    "INCLINATION": 53.1577,
    "RA_OF_ASC_NODE": 202.3237,
    "ARG_OF_PERICENTER": 61.1093,
    "MEAN_ANOMALY": 299.0056,
    "EPHEMERIS_TYPE": 0,
    "CLASSIFICATION_TYPE": "U",
    "NORAD_CAT_ID": 65890,
    "ELEMENT_SET_NO": 999,
    "REV_AT_EPOCH": 672,
    "BSTAR": 0.0016475,
    "MEAN_MOTION_DOT": 0.00092546,
    "MEAN_MOTION_DDOT": 0.0,
    "TLE_LINE1": "1 65890U 25224J   25315.18998396  .00092546  00000+0  16475-2 0  9992",
    "TLE_LINE2": "2 65890  53.1577 202.3237 0001396  61.1093 299.0056 15.49392750  6727",
    "COMMENT": "Grouped by shell and plane from TLE"
  },
  {
    "OBJECT_NAME": "STARLINK-34791",
    "OBJECT_ID": "25224K",
    "EPOCH": "2025-11-11T08:00:03.000384",
    "MEAN_MOTION": 15.38296145,
    "ECCENTRICITY": 0.0001323,
    "INCLINATION": 53.1597,
    "RA_OF_ASC_NODE": 201.4828,
    "ARG_OF_PERICENTER": 80.5463,
    "MEAN_ANOMALY": 72.9695,
    "EPHEMERIS_TYPE": 0,
    "CLASSIFICATION_TYPE": "U",
    "NORAD_CAT_ID": 65891,
    "ELEMENT_SET_NO": 999,
    "REV_AT_EPOCH": 588,
    "BSTAR": 0.0,
    "MEAN_MOTION_DOT": -0.02126223,
    "MEAN_MOTION_DDOT": 0.0,
    "TLE_LINE1": "1 65891U 25224K   25315.33336806 -.02126223  00000+0 -61630-1 0  9998",
    "TLE_LINE2": "2 65891  53.1597 201.4828 0001323  80.5463  72.9695 15.38296145  5884",
    "COMMENT": "Grouped by shell and plane from TLE"
  },
  {
    "OBJECT_NAME": "STARLINK-34853",
    "OBJECT_ID": "25224L",
    "EPOCH": "2025-11-11T04:32:38.004864",
    "MEAN_MOTION": 15.49316752,
    "ECCENTRICITY": 0.0002034,
    "INCLINATION": 53.1585,
    "RA_OF_ASC_NODE": 202.3192,
    "ARG_OF_PERICENTER": 28.2791,
    "MEAN_ANOMALY": 331.8328,
    "EPHEMERIS_TYPE": 0,
    "CLASSIFICATION_TYPE": "U",
    "NORAD_CAT_ID": 65892,
    "ELEMENT_SET_NO": 999,
    "REV_AT_EPOCH": 665,
    "BSTAR": 0.0025109999999999998,
    "MEAN_MOTION_DOT": 0.00141809,
    "MEAN_MOTION_DDOT": 0.0,
    "TLE_LINE1": "1 65892U 25224L   25315.18932876  .00141809  00000+0  25110-2 0  9998",
    "TLE_LINE2": "2 65892  53.1585 202.3192 0002034  28.2791 331.8328 15.49316752  6654",
    "COMMENT": "Grouped by shell and plane from TLE"
  },
  {
    "OBJECT_NAME": "STARLINK-34921",
    "OBJECT_ID": "25224M",
    "EPOCH": "2025-11-09T16:24:08.676000",
    "MEAN_MOTION": 15.49356465,
    "ECCENTRICITY": 0.0002201,
    "INCLINATION": 53.1592,
    "RA_OF_ASC_NODE": 209.263,
    "ARG_OF_PERICENTER": 91.13,
    "MEAN_ANOMALY": 268.9961,
    "EPHEMERIS_TYPE": 0,
    "CLASSIFICATION_TYPE": "U",
    "NORAD_CAT_ID": 65893,
    "ELEMENT_SET_NO": 999,
    "REV_AT_EPOCH": 649,
    "BSTAR": 0.0023977,
    "MEAN_MOTION_DOT": 0.00135468,
    "MEAN_MOTION_DDOT": 0.0,
    "TLE_LINE1": "1 65893U 25224M   25313.68343375  .00135468  00000+0  23977-2 0  9995",
    "TLE_LINE2": "2 65893  53.1592 209.2630 0002201  91.1300 268.9961 15.49356465  6497",
    "COMMENT": "Grouped by shell and plane from TLE"
  },
  {
    "OBJECT_NAME": "STARLINK-34672",
    "OBJECT_ID": "25224N",
    "EPOCH": "2025-11-10T23:23:29.042880",
    "MEAN_MOTION": 15.49848854,
    "ECCENTRICITY": 0.0012236,
    "INCLINATION": 53.1596,
    "RA_OF_ASC_NODE": 203.1035,
    "ARG_OF_PERICENTER": 260.5846,
    "MEAN_ANOMALY": 99.378,
    "EPHEMERIS_TYPE": 0,
    "CLASSIFICATION_TYPE": "U",
    "NORAD_CAT_ID": 65894,
    "ELEMENT_SET_NO": 999,
    "REV_AT_EPOCH": 669,
    "BSTAR": 0.0026679000000000004,
    "MEAN_MOTION_DOT": 0.0015419,
    "MEAN_MOTION_DDOT": 0.0,
    "TLE_LINE1": "1 65894U 25224N   25314.97464170  .00154190  00000+0  26679-2 0  9991",
    "TLE_LINE2": "2 65894  53.1596 203.1035 0012236 260.5846  99.3780 15.49848854  6695",
    "COMMENT": "Grouped by shell and plane from TLE"
  }
]